NORAD_CAT_ID,OBJECT_NAME,OBJECT_TYPE,EPOCH,MEAN_MOTION,ECCENTRICITY,INCLINATION,RA_OF_ASC_NODE,ARG_OF_PERICENTER,MEAN_ANOMALY,BSTAR,MEAN_MOTION_DOT,MEAN_MOTION_DDOT,TLE_LINE0,TLE_LINE1,TLE_LINE2,SEMIMAJOR_AXIS,PERIOD,APOGEE,PERIGEE,DECAYED
54209.0,STARLINK-5259,PAYLOAD,2024-05-23 01:14:14,15.08845063,0.0001326,53.2186,47.0506,76.5683,283.5457,0.00015232,2.137e-05,0.0,0 STARLINK-5259,1 54209U 22141BE  24144.05156148  .00002137  00000-0  15232-3 0  9994,2 54209  53.2186  47.0506 0001326  76.5683 283.5457 15.08845063 87397,6917.865,95.437,540.647,538.813,0.0
54209.0,STARLINK-5259,PAYLOAD,2024-05-24 02:40:24,15.08851103,0.0001499,53.2187,42.2897,76.8578,283.2581,8.3153e-05,1.036e-05,0.0,0 STARLINK-5259,1 54209U 22141BE  24145.11139729  .00001036  00000-0  83153-4 0  9993,2 54209  53.2187  42.2897 0001499  76.8578 283.2581 15.08851103 87550,6917.846,95.437,540.748,538.674,0.0
54209.0,STARLINK-5259,PAYLOAD,2024-05-24 20:09:39,15.08839503,0.000146,53.218,39.0193,105.997,254.1183,0.00012968,1.776e-05,0.0,0 STARLINK-5259,1 54209U 22141BE  24145.84004276  .00001776  00000-0  12968-3 0  9997,2 54209  53.2180  39.0193 0001460 105.9970 254.1183 15.08839503 87661,6917.882,95.438,540.757,538.737,0.0
54209.0,STARLINK-5259,PAYLOAD,2024-05-24 21:45:02,15.08838325,0.0001411,53.2177,38.721,114.7248,245.3892,0.0001016,1.329e-05,0.0,0 STARLINK-5259,1 54209U 22141BE  24145.90628275  .00001329  00000-0  10160-3 0  9991,2 54209  53.2177  38.7210 0001411 114.7248 245.3892 15.08838325 87441,6917.886,95.438,540.727,538.774,0.0
54209.0,STARLINK-5259,PAYLOAD,2024-05-25 02:31:12,15.08847203,0.0001115,53.2179,37.8383,88.0745,272.0375,0.00022092,3.231e-05,0.0,0 STARLINK-5259,1 54209U 22141BE  24146.10500006  .00003231  00000-0  22092-3 0  9996,2 54209  53.2179  37.8383 0001115  88.0745 272.0375 15.08847203 87471,6917.858,95.437,540.495,538.952,0.0
54209.0,STARLINK-5259,PAYLOAD,2024-05-25 20:00:28,15.08808752,0.0001676,53.2176,34.5619,111.1835,248.9336,0.00096837,0.00015144,0.0,0 STARLINK-5259,1 54209U 22141BE  24146.83365816  .00015144  00000-0  96837-3 0  9998,2 54209  53.2176  34.5619 0001676 111.1835 248.9336 15.08808752 87817,6917.976,95.44,541.0,538.681,0.0
54209.0,STARLINK-5259,PAYLOAD,2024-05-25 23:11:13,15.08844057,0.0001255,53.2175,33.9664,110.1284,249.9844,3.7075e-05,3.02e-06,0.0,0 STARLINK-5259,1 54209U 22141BE  24146.96612273  .00000302  00000-0  37075-4 0  9994,2 54209  53.2175  33.9664 0001255 110.1284 249.9844 15.08844057 87834,6917.868,95.437,540.601,538.865,0.0
54209.0,STARLINK-5259,PAYLOAD,2024-05-26 23:02:00,15.0883605,0.0001187,53.2187,29.5076,94.4775,265.6353,0.00014248,1.98e-05,0.0,0 STARLINK-5259,1 54209U 22141BE  24147.95972666  .00001980  00000-0  14248-3 0  9998,2 54209  53.2187  29.5076 0001187  94.4775 265.6353 15.08836050 87753,6917.892,95.438,540.579,538.936,0.0
54209.0,STARLINK-5259,PAYLOAD,2024-05-27 02:12:46,15.08836981,0.0001218,53.2189,28.9133,95.3811,264.732,0.00013519,1.864e-05,0.0,0 STARLINK-5259,1 54209U 22141BE  24148.09220597  .00001864  00000-0  13519-3 0  9994,2 54209  53.2189  28.9133 0001218  95.3811 264.7320 15.08836981 88004,6917.89,95.438,540.597,538.912,0.0
54209.0,STARLINK-5259,PAYLOAD,2024-05-27 08:34:18,15.08842892,0.00018,53.2189,27.7268,38.645,321.4671,0.00022883,3.356e-05,0.0,0 STARLINK-5259,1 54209U 22141BE  24148.35716163  .00003356  00000-0  22883-3 0  9994,2 54209  53.2189  27.7268 0001800  38.6450 321.4671 15.08842892 87812,6917.872,95.437,540.982,538.491,0.0
54209.0,STARLINK-5259,PAYLOAD,2024-05-27 21:17:24,15.08837452,0.0001299,53.2191,25.344,85.7183,274.3957,4.6254e-05,4.48e-06,0.0,0 STARLINK-5259,1 54209U 22141BE  24148.88708886  .00000448  00000-0  46254-4 0  9993,2 54209  53.2191  25.3440 0001299  85.7183 274.3957 15.08837452 87896,6917.888,95.438,540.652,538.855,0.0
54209.0,STARLINK-5259,PAYLOAD,2024-05-28 08:25:06,15.08838753,0.0001321,53.2192,23.2626,85.2731,274.8412,4.1851e-05,3.78e-06,0.0,0 STARLINK-5259,1 54209U 22141BE  24149.35076856  .00000378  00000-0  41851-4 0  9991,2 54209  53.2192  23.2626 0001321  85.2731 274.8412 15.08838753 88190,6917.884,95.438,540.663,538.835,0.0
54209.0,STARLINK-5259,PAYLOAD,2024-05-28 21:08:11,15.08834265,0.000135,53.219,20.884,93.6423,266.4724,3.0158e-05,1.92e-06,0.0,0 STARLINK-5259,1 54209U 22141BE  24149.88069248  .00000192  00000-0  30158-4 0  9998,2 54209  53.2190  20.8840 0001350  93.6423 266.4724 15.08834265 88043,6917.898,95.438,540.697,538.829,0.0
54209.0,STARLINK-5259,PAYLOAD,2024-05-28 22:43:35,15.08834129,0.0001325,53.2189,20.5865,90.2589,269.8555,2.6076e-05,1.27e-06,0.0,0 STARLINK-5259,1 54209U 22141BE  24149.94693291  .00000127  00000-0  26076-4 0  9998,2 54209  53.2189  20.5865 0001325  90.2589 269.8555 15.08834129 88287,6917.898,95.438,540.68,538.847,0.0
54209.0,STARLINK-5259,PAYLOAD,2024-05-29 20:58:58,15.08839736,0.0001265,53.2185,16.4224,85.8546,274.2591,9.8075e-05,1.273e-05,0.0,0 STARLINK-5259,1 54209U 22141BE  24150.87428997  .00001273  00000-0  98075-4 0  9992,2 54209  53.2185  16.4224 0001265  85.8546 274.2591 15.08839736 88191,6917.881,95.438,540.621,538.871,0.0
54209.0,STARLINK-5259,PAYLOAD,2024-05-30 00:09:44,15.08843492,0.0001316,53.2188,15.8272,84.4714,275.6428,0.0001274,1.74e-05,0.0,0 STARLINK-5259,1 54209U 22141BE  24151.00676708  .00001740  00000-0  12740-3 0  9996,2 54209  53.2188  15.8272 0001316  84.4714 275.6428 15.08843492 88445,6917.87,95.437,540.645,538.824,0.0
54209.0,STARLINK-5259,PAYLOAD,2024-05-30 20:49:45,15.08841564,0.0001328,53.2192,11.9578,85.1471,274.9672,0.00010599,1.399e-05,0.0,0 STARLINK-5259,1 54209U 22141BE  24151.86788954  .00001399  00000-0  10599-3 0  9997,2 54209  53.2192  11.9578 0001328  85.1471 274.9672 15.08841564 88572,6917.876,95.437,540.659,538.822,0.0
54209.0,STARLINK-5259,PAYLOAD,2024-05-31 00:00:32,15.08840205,0.0001401,53.2192,11.3657,80.3232,279.7918,7.8349e-05,9.59e-06,0.0,0 STARLINK-5259,1 54209U 22141BE  24152.00037181  .00000959  00000-0  78349-4 0  9992,2 54209  53.2192  11.3657 0001401  80.3232 279.7918 15.08840205 88362,6917.88,95.438,540.714,538.776,0.0
54209.0,STARLINK-5259,PAYLOAD,2024-05-31 20:40:32,15.0884446,0.0001297,53.2192,7.5016,90.5166,269.5975,1.8625e-06,-2.58e-06,0.0,0 STARLINK-5259,1 54209U 22141BE  24152.86148925 -.00000258  00000-0  18625-5 0  9990,2 54209  53.2192   7.5016 0001297  90.5166 269.5975 15.08844460 88491,6917.867,95.437,540.629,538.835,0.0
54209.0,STARLINK-5259,PAYLOAD,2024-05-31 23:51:18,15.08846254,0.0001361,53.2197,6.906,93.1025,267.0123,2.0391e-05,3.7e-07,0.0,0 STARLINK-5259,1 54209U 22141BE  24152.99396716  .00000037  00000-0  20391-4 0  9993,2 54209  53.2197   6.9060 0001361  93.1025 267.0123 15.08846254 88742,6917.861,95.437,540.668,538.785,0.0
54209.0,STARLINK-5259,PAYLOAD,2024-06-01 07:48:13,15.08851641,0.0001421,53.22,5.4208,91.458,268.6575,3.7471e-05,3.09e-06,0.0,0 STARLINK-5259,1 54209U 22141BE  24153.32516200  .00000309  00000-0  37471-4 0  9992,2 54209  53.2200   5.4208 0001421  91.4580 268.6575 15.08851641 88563,6917.845,95.437,540.693,538.727,0.0
54209.0,STARLINK-5259,PAYLOAD,2024-06-01 20:31:20,15.08835671,0.0001564,53.2209,3.0444,97.0679,263.0492,-1.7785e-07,-2.91e-06,0.0,0 STARLINK-5259,1 54209U 22141BE  24153.85509474 -.00000291  00000-0 -17785-6 0  9995,2 54209  53.2209   3.0444 0001564  97.0679 263.0492 15.08835671 88873,6917.894,95.438,540.841,538.677,0.0
54209.0,STARLINK-5259,PAYLOAD,2024-06-02 20:22:06,15.08840165,0.0001108,53.2188,358.5857,84.1927,275.9191,0.00011686,1.573e-05,0.0,0 STARLINK-5259,1 54209U 22141BE  24154.84868873  .00001573  00000-0  11686-3 0  9999,2 54209  53.2188 358.5857 0001108  84.1927 275.9191 15.08840165 89022,6917.88,95.438,540.511,538.978,0.0
54209.0,STARLINK-5259,PAYLOAD,2024-06-03 20:12:54,15.08837673,0.0001277,53.217,354.122,89.4564,270.6574,0.00010352,1.36e-05,0.0,0 STARLINK-5259,1 54209U 22141BE  24155.84229224  .00001360  00000-0  10352-3 0  9994,2 54209  53.2170 354.1220 0001277  89.4564 270.6574 15.08837673 88948,6917.888,95.438,540.636,538.869,0.0
54209.0,STARLINK-5259,PAYLOAD,2024-06-04 05:45:12,15.08844121,0.0001755,53.2196,352.3372,92.6012,267.5181,0.00010686,1.413e-05,0.0,0 STARLINK-5259,1 54209U 22141BE  24156.23972773  .00001413  00000-0  10686-3 0  9991,2 54209  53.2196 352.3372 0001755  92.6012 267.5181 15.08844121 89237,6917.868,95.437,540.947,538.519,0.0
54209.0,STARLINK-5259,PAYLOAD,2024-06-04 20:03:40,15.08844268,0.0001969,53.2191,349.6621,89.9918,270.13,4.7794e-05,4.73e-06,0.0,0 STARLINK-5259,1 54209U 22141BE  24156.83588716  .00000473  00000-0  47794-4 0  9993,2 54209  53.2191 349.6621 0001969  89.9918 270.1300 15.08844268 89098,6917.867,95.437,541.094,538.37,0.0
54209.0,STARLINK-5259,PAYLOAD,2024-06-04 23:14:27,15.08839048,0.000183,53.2203,349.0664,82.1572,277.9628,5.2904e-05,5.54e-06,0.0,0 STARLINK-5259,1 54209U 22141BE  24156.96837265  .00000554  00000-0  52904-4 0  9992,2 54209  53.2203 349.0664 0001830  82.1572 277.9628 15.08839048 89347,6917.883,95.438,541.014,538.482,0.0
54209.0,STARLINK-5259,PAYLOAD,2024-06-05 05:35:58,15.0885286,0.000154,53.2247,347.8785,78.963,281.1535,0.0001616,2.286e-05,0.0,0 STARLINK-5259,1 54209U 22141BE  24157.23331980  .00002286  00000-0  16160-3 0  9993,2 54209  53.2247 347.8785 0001540  78.9630 281.1535 15.08852860 89386,6917.841,95.437,540.771,538.641,0.0
54209.0,STARLINK-5259,PAYLOAD,2024-06-05 21:29:56,15.08785083,0.000169,53.2241,344.9065,91.8157,268.3028,-0.00036654,-6.108e-05,0.0,0 STARLINK-5259,1 54209U 22141BE  24157.89579165 -.00006108  00000-0 -36654-3 0  9993,2 54209  53.2241 344.9065 0001690  91.8157 268.3028 15.08785083 89255,6918.048,95.441,541.082,538.744,0.0
54209.0,STARLINK-5259,PAYLOAD,2024-06-06 03:51:25,15.0884193,0.0001315,53.2191,343.7143,65.4563,294.6566,-2.4163e-05,-6.72e-06,0.0,0 STARLINK-5259,1 54209U 22141BE  24158.16071071 -.00000672  00000-0 -24163-4 0  9990,2 54209  53.2191 343.7143 0001315  65.4563 294.6566 15.08841930 89528,6917.874,95.437,540.649,538.83,0.0
